[
  {
    "id": "289263",
    "organisation": {
      "type": "MAT",
      "name": "Royal Academy Trust",
      "address": {
        "address1": "50 Lawrence Street",
        "town": "Mill Hill",
        "postcode": "NW7 4YK"
      },
      "schools": [
        {
          "name": "Schultz Inc School",
          "address": {
            "address1": "10 Seed Street",
            "town": "London",
            "postcode": "N19 4PT"
          },
          "phase": "Nursery school"
        },
        {
          "name": "Mosciski Group School",
          "address": {
            "address1": "10 Seed Street",
            "town": "London",
            "postcode": "N19 4PT"
          },
          "phase": "Primary school"
        },
        {
          "name": "Boyer, Huels and Dicki School",
          "address": {
            "address1": "2 Owl Way",
            "town": "London",
            "postcode": "W6 1PT"
          },
          "phase": "Middle school"
        },
        {
          "name": "Renner - Kirlin School",
          "address": {
            "address1": "3 Owl Way",
            "town": "London",
            "postcode": "W7 2PT"
          },
          "phase": "Secondary school"
        },
        {
          "name": "Aufderhar, Sanford and Johnson School",
          "address": {
            "address1": "4 Owl Way",
            "town": "London",
            "postcode": "W8 3PT"
          },
          "phase": "Sixth form or college"
        },
        {
          "name": "Will Inc School",
          "address": {
            "address1": "5 Owl Way",
            "town": "London",
            "postcode": "W9 4PT"
          },
          "phase": "Through school"
        }
      ]
    },
    "locations": [
      {
        "name": "Royal Academy Trust",
        "address": {
          "address1": "50 Lawrence Street",
          "town": "Mill Hill",
          "postcode": "NW7 4YK"
        }
      }
    ],
    "role": "SENDCo (special educational needs and disabilities coordinator)",
    "title": "Maths teacher",
    "keyStages": [
      "Key stage 1",
      "Key stage 2",
      "Key stage 3",
      "Key stage 4"
    ],
    "subjects": [
      "Spanish"
    ],
    "contractType": "Maternity or parental leave cover",
    "contractLength": "6 months",
    "workingPatterns": [
      "Full time"
    ],
    "fullTimeDetails": "5 days a week",
    "salaryDetails": [
      "Full-time equivalent salary"
    ],
    "fullTimeEquivalentSalaryDetails": "Â£42,000",
    "hasAdditionalAllowances": "Yes",
    "additionalAllowances": "TLR is available.",
    "isRoleSuitableForEarlyCareeerTeachers": "Yes"
  }
]