[
  {
    "type": "School",
    "name": "Courtland Primary School",
    "address": {
      "address1": "50 Lawrence Street",
      "town": "Mill Hill",
      "postcode": "NW7 4YK"
    },
    "phase": "Nursery"
  },
  {
    "type": "School",
    "name": "Bushey Meads Secondary School",
    "address": {
      "address1": "50 Lawrence Street",
      "town": "Mill Hill",
      "postcode": "NW7 4YK"
    },
    "phase": "Secondary school"
  },
  {
    "type": "MAT",
    "name": "Royal Academy Trust",
    "address": {
      "address1": "50 Lawrence Street",
      "town": "Mill Hill",
      "postcode": "NW7 4YK"
    },
    "schools": [
      {
        "name": "Herman LLC School",
        "address": {
          "address1": "10 Seed Street",
          "town": "London",
          "postcode": "N19 4PT"
        },
        "phase": "Nursery school"
      },
      {
        "name": "Klein - Bednar School",
        "address": {
          "address1": "10 Seed Street",
          "town": "London",
          "postcode": "N19 4PT"
        },
        "phase": "Primary school"
      },
      {
        "name": "Hermann - Dooley School",
        "address": {
          "address1": "2 Owl Way",
          "town": "London",
          "postcode": "W6 1PT"
        },
        "phase": "Middle school"
      },
      {
        "name": "Kutch and Sons School",
        "address": {
          "address1": "3 Owl Way",
          "town": "London",
          "postcode": "W7 2PT"
        },
        "phase": "Secondary school"
      },
      {
        "name": "Legros, Hintz and Boyle School",
        "address": {
          "address1": "4 Owl Way",
          "town": "London",
          "postcode": "W8 3PT"
        },
        "phase": "Sixth form or college"
      },
      {
        "name": "Bahringer, Nader and Jones School",
        "address": {
          "address1": "5 Owl Way",
          "town": "London",
          "postcode": "W9 4PT"
        },
        "phase": "Through school"
      }
    ]
  },
  {
    "type": "LA",
    "name": "Barnet Local Authority",
    "address": {
      "address1": "50 Lawrence Street",
      "town": "Mill Hill",
      "postcode": "NW7 4YK"
    },
    "schools": [
      {
        "name": "Morissette Group School",
        "address": {
          "address1": "10 Seed Street",
          "town": "London",
          "postcode": "N19 4PT"
        },
        "phase": "Nursery school"
      },
      {
        "name": "Hettinger and Sons School",
        "address": {
          "address1": "10 Seed Street",
          "town": "London",
          "postcode": "N19 4PT"
        },
        "phase": "Primary school"
      },
      {
        "name": "Nolan LLC School",
        "address": {
          "address1": "2 Owl Way",
          "town": "London",
          "postcode": "W6 1PT"
        },
        "phase": "Middle school"
      },
      {
        "name": "Boyle - Reichel School",
        "address": {
          "address1": "3 Owl Way",
          "town": "London",
          "postcode": "W7 2PT"
        },
        "phase": "Secondary school"
      },
      {
        "name": "Sawayn, Bernier and Bradtke School",
        "address": {
          "address1": "4 Owl Way",
          "town": "London",
          "postcode": "W8 3PT"
        },
        "phase": "Sixth form or college"
      },
      {
        "name": "McKenzie LLC School",
        "address": {
          "address1": "5 Owl Way",
          "town": "London",
          "postcode": "W9 4PT"
        },
        "phase": "Through school"
      }
    ]
  }
]