[
  {
    "type": "School",
    "name": "Boom School",
    "address": {
      "address1": "123 Main Street",
      "town": "Some town",
      "postcode": "AB1 2CD"
    }
  },
  {
    "type": "MAT",
    "name": "Boom Academy",
    "address": {
      "address1": "123 Main Street",
      "town": "Some town",
      "postcode": "AB1 2CD"
    },
    "schools": [
      {
        "name": "Simonis LLC School",
        "address": {
          "address1": "1 Owl Way",
          "town": "London",
          "postcode": "W9 4PT"
        }
      },
      {
        "name": "Hettinger - Boyer School",
        "address": {
          "address1": "10 Seed Street",
          "town": "London",
          "postcode": "N19 4PT"
        }
      },
      {
        "name": "Feil Inc School",
        "address": {
          "address1": "10 Seed Street",
          "town": "London",
          "postcode": "N19 4PT"
        }
      }
    ]
  },
  {
    "type": "LA",
    "name": "Boom Local Authority",
    "address": {
      "address1": "123 Main Street",
      "town": "Some town",
      "postcode": "AB1 2CD"
    },
    "schools": [
      {
        "name": "West Group School",
        "address": {
          "address1": "1 Owl Way",
          "town": "London",
          "postcode": "W9 4PT"
        }
      },
      {
        "name": "Beier, MacGyver and Smith School",
        "address": {
          "address1": "10 Seed Street",
          "town": "London",
          "postcode": "N19 4PT"
        }
      },
      {
        "name": "Stamm Inc School",
        "address": {
          "address1": "10 Seed Street",
          "town": "London",
          "postcode": "N19 4PT"
        }
      }
    ]
  }
]